0 DELTA 2 DEB (DPAF)
1 29110U 06016D   13282.17339846  .00001985  00000-0  35665-3 0  2346
2 29110 098.4436 307.3896 0004954 078.2001 323.6239 14.67845250398094
0 DELTA 2 DEB (DPAF)
1 29110U 06016D   13287.15878035  .00002776  00000-0  49482-3 0  2360
2 29110 098.4430 312.5295 0004846 064.6074 025.6946 14.67862484398821
0 DELTA 2 DEB (DPAF)
1 29110U 06016D   13289.19527307  .00003789  00000-0  67173-3 0  2372
2 29110 098.4423 314.6292 0004775 060.0650 345.3587 14.67877967399123
0 DELTA 2 DEB (DPAF)
1 29110U 06016D   13291.52724167  .00003133  00000-0  55699-3 0  2389
2 29110 098.4416 317.0331 0004589 052.7366 068.3879 14.67890741399469
0 DELTA 2 DEB (DPAF)
1 29110U 06016D   13293.83810330  .00003312  00000-0  58805-3 0  2395
2 29110 098.4413 319.4150 0004478 048.0933 037.3690 14.67901526399805
0 DELTA 2 DEB (DPAF)
1 29110U 06016D   13295.88293219  .00003646  00000-0  64633-3 0  2401
2 29110 098.4418 321.5227 0004345 042.1596 042.7223 14.67913400400104
